IRIDIUM 36              
1 24967U 97056C   24204.36119669  .00001104  00000+0  36693-3 0  9993
2 24967  86.3986 311.5268 0002146  88.7973 271.3470 14.36905883404842
IRIDIUM 39              
1 25042U 97069D   24204.94239325  .00001729  00000+0  45887-3 0  9996
2 25042  86.3940 352.2452 0017109 331.3873  28.6390 14.48088269401557
IRIDIUM 38              
1 25043U 97069E   24204.91466869  .00001214  00000+0  40024-3 0  9996
2 25043  86.3970  11.6463 0003900  94.8241 265.3402 14.37352657398645
IRIDIUM 42              
1 25077U 97077A   24204.94021032  .00001074  00000+0  36593-3 0  9994
2 25077  86.3968  17.3977 0002691  96.3474 263.8029 14.35643632393943
IRIDIUM 44              
1 25078U 97077B   24204.94433216  .00001197  00000+0  37797-3 0  9999
2 25078  86.3976   0.2105 0003401  62.4998 297.6546 14.39492410396326
IRIDIUM 45              
1 25104U 97082A   24204.95019124  .00023252  00000+0  12508-2 0  9992
2 25104  86.3745 205.4485 0158905 108.8427 253.0116 15.04423972402239
IRIDIUM 51              
1 25262U 98018A   24204.58507196  .00032941  00000+0  14486-2 0  9999
2 25262  86.3927 215.3286 0142718  53.3727 308.0538 15.12922226396761
